ONEWEB-0588             
1 55153U 23004P   25054.09899920  .00000033  00000+0  51552-4 0  9997
2 55153  87.9045  70.7825 0001655  76.3795 283.7522 13.18687447106552
ONEWEB-0598             
1 55154U 23004Q   25054.24542736  .00000373  00000+0  10175-2 0  9996
2 55154  87.8857 116.5661 0002379  87.9525 272.1876 13.11417114103133
ONEWEB-0599             
1 55155U 23004R   25054.17140984  .00000049  00000+0  93997-4 0  9993
2 55155  87.9041 101.2977 0002142  96.2221 263.9155 13.17651086104408
ONEWEB-0614             
1 55156U 23004S   25054.24034470  .00000506  00000+0  13907-2 0  9993
2 55156  87.8859 116.5745 0001510 104.1115 256.0181 13.11418485103089
ONEWEB-0616             
1 55157U 23004T   25054.13767950  .00000005  00000+0 -19625-4 0  9998
2 55157  87.9038 101.3012 0002895 112.2140 247.9299 13.17648468104615
ONEWEB-0617             
1 55158U 23004U   25053.92329225  .00000511  00000+0  14050-2 0  9990
2 55158  87.8855 116.6227 0001584  93.5168 266.6142 13.11416621103043
ONEWEB-0618             
1 55159U 23004V   25053.60007735  .00001547  00000+0  51532-3 0  9992
2 55159  86.9124   4.3905 0012761 184.3879 175.7209 14.36992711111079
ONEWEB-0619             
1 55160U 23004W   25054.16970906  .00000138  00000+0  32341-3 0  9997
2 55160  87.9039 101.2721 0001622 115.5467 244.5832 13.17654458104512
